{
  "type": "FeatureCollection",
  "features": [
    {
      "type": "Feature",
      "properties": {
        "norad_id": 31307,
        "name": "GALAXY 17 (G-17)",
        "group": "intelsat",
        "lat": 2.5004664030140686,
        "lon": -178.54446037245887,
        "alt_km": 35780.11323726512,
        "timestamp": "2025-12-24T11:32:59.671622+00:00",
        "meta_object_name": "GALAXY 17 (G-17)",
        "meta_object_id": "2007-016B",
        "meta_epoch": "2025-12-24T02:30:13.679136",
        "meta_mean_motion": 1.00269352,
        "meta_eccentricity": 0.0005354,
        "meta_inclination": 2.5268,
        "meta_ra_of_asc_node": 82.1569,
        "meta_arg_of_pericenter": 172.8488,
        "meta_mean_anomaly": 150.4435,
        "meta_ephemeris_type": 0,
        "meta_classification_type": "U",
        "meta_norad_cat_id": 31307,
        "meta_element_set_no": 999,
        "meta_rev_at_epoch": 6804,
        "meta_bstar": 0,
        "meta_mean_motion_dot": -1.86e-06,
        "meta_mean_motion_ddot": 0,
        "tle_line1": "1 31307U 07016B   25358.10432499 -.00000186  00000+0  00000+0 0  9997",
        "tle_line2": "2 31307   2.5268  82.1569 0005354 172.8488 150.4435  1.00269352 68043"
      },
      "geometry": {
        "type": "Point",
        "coordinates": [
          -178.54446037245887,
          2.5004664030140686
        ]
      }
    },
    {
      "type": "Feature",
      "properties": {
        "norad_id": 31862,
        "name": "DIRECTV 10",
        "group": "intelsat",
        "lat": 0.004426841587704417,
        "lon": 163.70446446458226,
        "alt_km": 35785.18581940199,
        "timestamp": "2025-12-24T11:32:59.671634+00:00",
        "meta_object_name": "DIRECTV 10",
        "meta_object_id": "2007-032A",
        "meta_epoch": "2025-12-23T16:04:04.915776",
        "meta_mean_motion": 1.00272171,
        "meta_eccentricity": 2.717e-05,
        "meta_inclination": 0.0092,
        "meta_ra_of_asc_node": 113.2913,
        "meta_arg_of_pericenter": 95.817,
        "meta_mean_anomaly": 21.5753,
        "meta_ephemeris_type": 0,
        "meta_classification_type": "U",
        "meta_norad_cat_id": 31862,
        "meta_element_set_no": 999,
        "meta_rev_at_epoch": 4383,
        "meta_bstar": 0,
        "meta_mean_motion_dot": -8.2e-07,
        "meta_mean_motion_ddot": 0,
        "tle_line1": "1 31862U 07032A   25357.66950134 -.00000082  00000+0  00000+0 0  9997",
        "tle_line2": "2 31862   0.0092 113.2913 0000271  95.8170  21.5753  1.00272171 43835"
      },
      "geometry": {
        "type": "Point",
        "coordinates": [
          163.70446446458226,
          0.004426841587704417
        ]
      }
    },
    {
      "type": "Feature",
      "properties": {
        "norad_id": 32253,
        "name": "INTELSAT 11 (IS-11)",
        "group": "intelsat",
        "lat": 0.004289301854387456,
        "lon": 80.56617042855669,
        "alt_km": 36167.30107936398,
        "timestamp": "2025-12-24T11:32:59.671646+00:00",
        "meta_object_name": "INTELSAT 11 (IS-11)",
        "meta_object_id": "2007-044B",
        "meta_epoch": "2025-12-23T17:23:57.267168",
        "meta_mean_motion": 0.99052963,
        "meta_eccentricity": 0.00085689,
        "meta_inclination": 3.107,
        "meta_ra_of_asc_node": 80.8548,
        "meta_arg_of_pericenter": 170.4374,
        "meta_mean_anomaly": 279.6071,
        "meta_ephemeris_type": 0,
        "meta_classification_type": "U",
        "meta_norad_cat_id": 32253,
        "meta_element_set_no": 999,
        "meta_rev_at_epoch": 6671,
        "meta_bstar": 0,
        "meta_mean_motion_dot": -1.53e-06,
        "meta_mean_motion_ddot": 0,
        "tle_line1": "1 32253U 07044B   25357.72496837 -.00000153  00000+0  00000+0 0  9996",
        "tle_line2": "2 32253   3.1070  80.8548 0008568 170.4374 279.6071  0.99052963 66719"
      },
      "geometry": {
        "type": "Point",
        "coordinates": [
          80.56617042855669,
          0.004289301854387456
        ]
      }
    },
    {
      "type": "Feature",
      "properties": {
        "norad_id": 32388,
        "name": "HORIZONS-2",
        "group": "intelsat",
        "lat": 2.024266532882417,
        "lon": -167.33517133019086,
        "alt_km": 35785.00343052209,
        "timestamp": "2025-12-24T11:32:59.671658+00:00",
        "meta_object_name": "HORIZONS-2",
        "meta_object_id": "2007-063B",
        "meta_epoch": "2025-12-24T03:41:40.295040",
        "meta_mean_motion": 1.00270077,
        "meta_eccentricity": 0.0004715,
        "meta_inclination": 2.1495,
        "meta_ra_of_asc_node": 82.8378,
        "meta_arg_of_pericenter": 196.0522,
        "meta_mean_anomaly": 155.6684,
        "meta_ephemeris_type": 0,
        "meta_classification_type": "U",
        "meta_norad_cat_id": 32388,
        "meta_element_set_no": 999,
        "meta_rev_at_epoch": 6605,
        "meta_bstar": 0,
        "meta_mean_motion_dot": -2.33e-06,
        "meta_mean_motion_ddot": 0,
        "tle_line1": "1 32388U 07063B   25358.15393860 -.00000233  00000+0  00000+0 0  9995",
        "tle_line2": "2 32388   2.1495  82.8378 0004715 196.0522 155.6684  1.00270077 66051"
      },
      "geometry": {
        "type": "Point",
        "coordinates": [
          -167.33517133019086,
          2.024266532882417
        ]
      }
    },
    {
      "type": "Feature",
      "properties": {
        "norad_id": 32729,
        "name": "DIRECTV 11",
        "group": "intelsat",
        "lat": 0.0054743382910363275,
        "lon": 167.28815757539667,
        "alt_km": 35784.732084230185,
        "timestamp": "2025-12-24T11:32:59.671671+00:00",
        "meta_object_name": "DIRECTV 11",
        "meta_object_id": "2008-013A",
        "meta_epoch": "2025-12-23T11:18:33.914304",
        "meta_mean_motion": 1.00266312,
        "meta_eccentricity": 7.118e-05,
        "meta_inclination": 0.0383,
        "meta_ra_of_asc_node": 192.497,
        "meta_arg_of_pericenter": 321.3622,
        "meta_mean_anomaly": 8.8504,
        "meta_ephemeris_type": 0,
        "meta_classification_type": "U",
        "meta_norad_cat_id": 32729,
        "meta_element_set_no": 999,
        "meta_rev_at_epoch": 4383,
        "meta_bstar": 0,
        "meta_mean_motion_dot": -1.04e-06,
        "meta_mean_motion_ddot": 0,
        "tle_line1": "1 32729U 08013A   25357.47122586 -.00000104  00000+0  00000+0 0  9996",
        "tle_line2": "2 32729   0.0383 192.4970 0000711 321.3622   8.8504  1.00266312 43833"
      },
      "geometry": {
        "type": "Point",
        "coordinates": [
          167.28815757539667,
          0.0054743382910363275
        ]
      }
    },
    {
      "type": "Feature",
      "properties": {
        "norad_id": 32951,
        "name": "GALAXY 18 (G-18)",
        "group": "intelsat",
        "lat": 0.004910835572926031,
        "lon": 143.46585497727597,
        "alt_km": 35794.7163617573,
        "timestamp": "2025-12-24T11:32:59.671684+00:00",
        "meta_object_name": "GALAXY 18 (G-18)",
        "meta_object_id": "2008-024A",
        "meta_epoch": "2025-12-23T17:40:55.643232",
        "meta_mean_motion": 1.00271951,
        "meta_eccentricity": 0.00029616,
        "meta_inclination": 0.0145,
        "meta_ra_of_asc_node": 299.576,
        "meta_arg_of_pericenter": 337.9968,
        "meta_mean_anomaly": 317.1726,
        "meta_ephemeris_type": 0,
        "meta_classification_type": "U",
        "meta_norad_cat_id": 32951,
        "meta_element_set_no": 999,
        "meta_rev_at_epoch": 4409,
        "meta_bstar": 0,
        "meta_mean_motion_dot": 4.6e-07,
        "meta_mean_motion_ddot": 0,
        "tle_line1": "1 32951U 08024A   25357.73675513  .00000046  00000+0  00000+0 0  9991",
        "tle_line2": "2 32951   0.0145 299.5760 0002961 337.9968 317.1726  1.00271951 44093"
      },
      "geometry": {
        "type": "Point",
        "coordinates": [
          143.46585497727597,
          0.004910835572926031
        ]
      }
    },
    {
      "type": "Feature",
      "properties": {
        "norad_id": 33153,
        "name": "INTELSAT 25 (IS-25)",
        "group": "intelsat",
        "lat": 1.0296353219462253,
        "lon": -125.0099687600109,
        "alt_km": 35769.11688970892,
        "timestamp": "2025-12-24T11:32:59.671696+00:00",
        "meta_object_name": "INTELSAT 25 (IS-25)",
        "meta_object_id": "2008-034A",
        "meta_epoch": "2025-12-23T23:15:16.270848",
        "meta_mean_motion": 1.00272434,
        "meta_eccentricity": 0.0004858,
        "meta_inclination": 2.2548,
        "meta_ra_of_asc_node": 82.5288,
        "meta_arg_of_pericenter": 188.1867,
        "meta_mean_anomaly": 139.3556,
        "meta_ephemeris_type": 0,
        "meta_classification_type": "U",
        "meta_norad_cat_id": 33153,
        "meta_element_set_no": 999,
        "meta_rev_at_epoch": 6393,
        "meta_bstar": 0,
        "meta_mean_motion_dot": -2.04e-06,
        "meta_mean_motion_ddot": 0,
        "tle_line1": "1 33153U 08034A   25357.96893832 -.00000204  00000+0  00000+0 0  9995",
        "tle_line2": "2 33153   2.2548  82.5288 0004858 188.1867 139.3556  1.00272434 63931"
      },
      "geometry": {
        "type": "Point",
        "coordinates": [
          -125.0099687600109,
          1.0296353219462253
        ]
      }
    }
  ]
}